[{"OBJECT_NAME":"STARLINK-5586","OBJECT_ID":"2023-013AX","EPOCH":"2026-03-09T22:00:01.999584","MEAN_MOTION":15.10202202,"ECCENTRICITY":0.00020543,"INCLINATION":43.0003,"RA_OF_ASC_NODE":286.1442,"ARG_OF_PERICENTER":239.559,"MEAN_ANOMALY":88.6644,"EPHEMERIS_TYPE":0,"CLASSIFICATION_TYPE":"U","NORAD_CAT_ID":55376,"ELEMENT_SET_NO":999,"REV_AT_EPOCH":577,"BSTAR":0.0026573218,"MEAN_MOTION_DOT":0.00044229,"MEAN_MOTION_DDOT":0},{"OBJECT_NAME":"JILIN-01 KUANFU 02B 6","OBJECT_ID":"2024-169F","EPOCH":"2026-03-09T21:43:38.712288","MEAN_MOTION":15.09238946,"ECCENTRICITY":0.00150747,"INCLINATION":97.5549,"RA_OF_ASC_NODE":159.9459,"ARG_OF_PERICENTER":324.4254,"MEAN_ANOMALY":35.5968,"EPHEMERIS_TYPE":0,"CLASSIFICATION_TYPE":"U","NORAD_CAT_ID":61194,"ELEMENT_SET_NO":999,"REV_AT_EPOCH":8086,"BSTAR":0.00036442477,"MEAN_MOTION_DOT":5.751e-5,"MEAN_MOTION_DDOT":0}]
